SWARM B                 
1 39451U 13067A   26192.74822542  .00002167  00000+0  76397-4 0  9994
2 39451  87.7454 334.8550 0002467  82.2995 277.8534 15.28703351686990
SWARM A                 
1 39452U 13067B   26192.73441643  .00006632  00000+0  11189-3 0  9991
2 39452  87.3305  47.1152 0003319  94.6987 265.4654 15.51413910710055
SWARM C                 
1 39453U 13067C   26192.73432178  .00006731  00000+0  11358-3 0  9993
2 39453  87.3305  45.6960 0003295  94.3996 265.7642 15.51413185710016
BRITE-CA1 (TORONTO)     
1 40020U 14033L   26190.18755172  .00000733  00000+0  11766-3 0  9997
2 40020  97.9764 318.7133 0078005 205.5751 154.1590 14.72715027645456
OCO 2                   
1 40059U 14035A   26192.73902097  .00000189  00000+0  51966-4 0  9996
2 40059  98.2021 133.6590 0001453  81.4954 278.6409 14.57130636639621
BRITE-PL2 (HEWELIUSZ)   
1 40119U 14049B   26192.54109982  .00001064  00000+0  10344-3 0  9996
2 40119  97.9117 304.7322 0014652  34.1400 326.0759 14.94680800645087
MMS 1                   
1 40482U 15011A   26192.75002315 -.00001189  00000+0  00000+0 0  9997
2 40482  72.4850 348.4715 8303666 168.0046 284.0851  0.28400257  1350
MMS 2                   
1 40483U 15011B   26192.75002315 -.00001190  00000+0  00000+0 0  9990
2 40483  72.4890 348.4705 8306483 168.0075 284.0730  0.28400238  1351
MMS 3                   
1 40484U 15011C   26192.75002315 -.00001189  00000+0  00000+0 0  9999
2 40484  72.4886 348.4823 8304897 168.0126 284.0571  0.28396538  1329
MMS 4                   
1 40485U 15011D   26192.75002315 -.00001189  00000+0  00000+0 0  9990
2 40485  72.4844 348.4658 8304792 168.0250 284.0416  0.28400212  1381
ASTROSAT                
1 40930U 15052A   26191.90596707  .00001214  00000+0  66131-4 0  9999
2 40930   5.9979 344.6185 0007866   9.4837 350.5439 14.82548208583351
DAMPE                   
1 41173U 15078A   26192.74625809  .00000762  00000+0  28147-4 0  9998
2 41173  97.4565 198.3347 0012014 358.0961   2.0232 15.30847431588308
PISAT                   
1 41784U 16059B   26192.52907076  .00000502  00000+0  93078-4 0  9998
2 41784  97.8188 191.9369 0030290 126.0385 234.3635 14.69025621523310
HXMT (HUIYAN)           
1 42758U 17034A   26192.73410019  .00002925  00000+0  14826-3 0  9997
2 42758  43.0150  46.3381 0032611 299.6460  60.1143 15.18669914501398
FLYING LAPTOP           
1 42831U 17042G   26192.78089998  .00002509  00000+0  19875-3 0  9998
2 42831  97.4788 347.3863 0019854  43.2580 317.0200 15.01299879490148
ZHANGHENG 1-01 (CSES-1) 
1 43194U 18015C   26192.74509778  .00004422  00000+0  20455-3 0  9993
2 43194  97.6882 358.8963 0016093 176.6097 183.5250 15.20579546468376
SALSAT                  
1 46495U 20068K   26192.54062004  .00004447  00000+0  15528-3 0  9997
2 46495  97.8855 197.0941 0008823 206.5203 153.5586 15.30139435319080
IXPE                    
1 49954U 21121A   26192.75002315  .00006423  00000+0  32448-3 0  9999
2 49954   0.2290 131.5295 0006906  88.5383 232.8667 15.10471004  5651
