OBJECT_NAME,OBJECT_ID,EPOCH,MEAN_MOTION,ECCENTRICITY,INCLINATION,RA_OF_ASC_NODE,ARG_OF_PERICENTER,MEAN_ANOMALY,EPHEMERIS_TYPE,CLASSIFICATION_TYPE,NORAD_CAT_ID,ELEMENT_SET_NO,REV_AT_EPOCH,BSTAR,MEAN_MOTION_DOT,MEAN_MOTION_DDOT
SWARM B,2013-067A,2026-07-11T17:57:26.676288,15.28703351,.00024674,87.7454,334.8550,82.2995,277.8534,0,U,39451,999,68699,.76396929E-4,.2167E-4,0
SWARM A,2013-067B,2026-07-11T17:37:33.579552,15.51413910,.00033198,87.3305,47.1152,94.6987,265.4654,0,U,39452,999,71005,.11188942E-3,.6632E-4,0
SWARM C,2013-067C,2026-07-11T17:37:25.401792,15.51413185,.00032957,87.3305,45.6960,94.3996,265.7642,0,U,39453,999,71001,.11357596E-3,.6731E-4,0
BRITE-CA1 (TORONTO),2014-033L,2026-07-09T04:30:04.468608,14.72715027,.00780057,97.9764,318.7133,205.5751,154.1590,0,U,40020,999,64545,.1176575E-3,.733E-5,0
OCO 2,2014-035A,2026-07-11T17:44:11.411808,14.57130636,.00014533,98.2021,133.6590,81.4954,278.6409,0,U,40059,999,63962,.51966149E-4,.189E-5,0
BRITE-PL2 (HEWELIUSZ),2014-049B,2026-07-11T12:59:11.024448,14.94680800,.00146524,97.9117,304.7322,34.1400,326.0759,0,U,40119,999,64508,.10343543E-3,.1064E-4,0
MMS 1,2015-011A,2026-07-11T18:00:02.000160,0.28400257,.83036662,72.4850,348.4715,168.0046,284.0851,0,U,40482,999,135,0,-.1189E-4,0
MMS 2,2015-011B,2026-07-11T18:00:02.000160,0.28400238,.83064832,72.4890,348.4705,168.0075,284.0730,0,U,40483,999,135,0,-.119E-4,0
MMS 3,2015-011C,2026-07-11T18:00:02.000160,0.28396538,.83048976,72.4886,348.4823,168.0126,284.0571,0,U,40484,999,132,0,-.1189E-4,0
MMS 4,2015-011D,2026-07-11T18:00:02.000160,0.28400212,.83047925,72.4844,348.4658,168.0250,284.0416,0,U,40485,999,138,0,-.1189E-4,0
ASTROSAT,2015-052A,2026-07-10T21:44:35.554848,14.82548208,.00078666,5.9979,344.6185,9.4837,350.5439,0,U,40930,999,58335,.66131052E-4,.1214E-4,0
DAMPE,2015-078A,2026-07-11T17:54:36.698976,15.30847431,.00120146,97.4565,198.3347,358.0961,2.0232,0,U,41173,999,58830,.28146591E-4,.762E-5,0
PISAT,2016-059B,2026-07-11T12:41:51.713664,14.69025621,.00302902,97.8188,191.9369,126.0385,234.3635,0,U,41784,999,52331,.93078043E-4,.502E-5,0
HXMT (HUIYAN),2017-034A,2026-07-11T17:37:06.256416,15.18669914,.00326119,43.0150,46.3381,299.6460,60.1143,0,U,42758,999,50139,.14825742E-3,.2925E-4,0
FLYING LAPTOP,2017-042G,2026-07-11T18:44:29.758272,15.01299879,.00198542,97.4788,347.3863,43.2580,317.0200,0,U,42831,999,49014,.19874742E-3,.2509E-4,0
ZHANGHENG 1-01 (CSES-1),2018-015C,2026-07-11T17:52:56.448192,15.20579546,.00160931,97.6882,358.8963,176.6097,183.5250,0,U,43194,999,46837,.2045523E-3,.4422E-4,0
SALSAT,2020-068K,2026-07-11T12:58:29.571456,15.30139435,.00088233,97.8855,197.0941,206.5203,153.5586,0,U,46495,999,31908,.15528118E-3,.4447E-4,0
IXPE,2021-121A,2026-07-11T18:00:02.000160,15.10471004,.00069064,0.2290,131.5295,88.5383,232.8667,0,U,49954,999,565,.32448493E-3,.6423E-4,0
